OBJECT_NAME,OBJECT_ID,EPOCH,MEAN_MOTION,ECCENTRICITY,INCLINATION,RA_OF_ASC_NODE,ARG_OF_PERICENTER,MEAN_ANOMALY,EPHEMERIS_TYPE,CLASSIFICATION_TYPE,NORAD_CAT_ID,ELEMENT_SET_NO,REV_AT_EPOCH,BSTAR,MEAN_MOTION_DOT,MEAN_MOTION_DDOT
ONEWEB-0236,2021-045AG,2026-06-12T18:20:54.011328,13.15547663,.0002103,87.8999,260.0875,102.4160,257.7206,0,U,48797,999,24367,-.39152E-3,-.135E-5,0
ONEWEB-0248,2021-045AH,2026-06-12T18:39:08.332128,13.15547377,.000167,87.9009,260.0681,113.7012,246.4293,0,U,48798,999,24383,-.63844E-4,-.11E-6,0
ONEWEB-0225,2021-045AJ,2026-06-12T19:11:06.221184,13.15548596,.0001395,87.9007,260.0719,106.3408,253.7875,0,U,48799,999,24384,.22771E-3,.99E-6,0
ONEWEB-0215,2021-045AK,2026-06-12T18:27:42.902784,13.15546731,.0001368,87.9010,260.0601,113.9266,246.2007,0,U,48800,999,24371,-.16438E-3,-.49E-6,0
ONEWEB-0216,2021-045AL,2026-06-12T18:41:26.484000,13.15548562,.0001966,87.9007,260.0733,98.3834,261.7519,0,U,48801,999,24372,.45565E-4,.3E-6,0
ONEWEB-0239,2021-045AM,2026-06-12T18:48:16.744032,13.15548697,.0001492,87.8997,260.0791,124.1955,235.9317,0,U,48802,999,24376,.25489E-3,.109E-5,0
ONEWEB-0249,2021-060A,2026-06-12T06:21:43.466688,13.16595748,.00020346,87.9101,229.7554,101.8001,258.3358,0,U,48967,999,23896,.2793164E-3,.12E-5,0
ONEWEB-0250,2021-060B,2026-06-12T04:13:02.842176,13.25833862,.00026947,87.9100,227.5457,118.2287,241.9122,0,U,48968,999,23955,.18642242E-3,.95E-6,0
ONEWEB-0252,2021-060D,2026-06-12T05:16:44.680512,13.16593776,.00019496,87.9098,229.7565,92.2143,267.9211,0,U,48970,999,23900,.77337947E-4,.42E-6,0
ONEWEB-0253,2021-060E,2026-06-12T05:00:47.105856,13.16594323,.00020611,87.9099,229.7643,101.7887,258.3475,0,U,48971,999,23893,-.37629009E-3,-.131E-5,0
ONEWEB-0254,2021-060F,2026-06-12T05:14:28.207392,13.16594347,.00018549,87.9102,229.7598,105.9923,254.1412,0,U,48972,999,23893,-.18098871E-3,-.56E-6,0
ONEWEB-0255,2021-060G,2026-06-12T04:19:45.223392,13.16594673,.00018818,87.9098,229.7741,101.3317,258.8025,0,U,48973,999,23900,.30158932E-3,.128E-5,0
ONEWEB-0256,2021-060H,2026-06-12T17:43:24.356640,13.16593304,.0002106,87.9095,229.6676,95.0717,265.0654,0,U,48974,999,23904,-.18893E-3,-.59E-6,0
ONEWEB-0257,2021-060J,2026-06-12T05:44:06.171648,13.16593768,.0001893,87.9098,229.7538,97.4747,262.6599,0,U,48975,999,23893,.10802182E-3,.54E-6,0
ONEWEB-0258,2021-060K,2026-06-12T05:46:23.128608,13.16594276,.00020475,87.9098,229.7653,100.1829,259.9533,0,U,48976,999,23894,.23076829E-3,.101E-5,0
ONEWEB-0259,2021-060L,2026-06-12T05:37:16.240800,13.16594224,.00020059,87.9096,229.7659,103.8109,256.3245,0,U,48977,999,23897,.90175582E-4,.47E-6,0
ONEWEB-0260,2021-060M,2026-06-12T05:24:43.117920,13.16594036,.00020594,87.9093,229.7695,87.2548,272.8818,0,U,48978,999,23895,.28323507E-4,.24E-6,0
ONEWEB-0261,2021-060N,2026-06-12T06:30:49.220928,13.16596123,.00016975,87.9098,229.7600,97.9608,262.1715,0,U,48979,999,23901,.10821177E-3,.54E-6,0
ONEWEB-0262,2021-060P,2026-06-12T04:12:54.664416,13.16594637,.0002012,87.9097,229.7650,106.4076,253.7276,0,U,48980,999,23896,.25205068E-3,.109E-5,0
ONEWEB-0263,2021-060Q,2026-06-12T17:44:33.393696,13.16594682,.0001719,87.9100,229.6647,101.8760,258.2563,0,U,48981,999,23900,-.19034E-3,-.6E-6,0
ONEWEB-0264,2021-060R,2026-06-12T05:52:05.568096,13.16594954,.00018778,87.9098,229.7661,93.7240,266.4106,0,U,48982,999,23894,.25225853E-3,.109E-5,0
ONEWEB-0266,2021-060T,2026-06-12T04:33:25.753824,13.16594122,.00021207,87.9102,229.7673,99.4345,260.7026,0,U,48984,999,23892,.11556996E-3,.57E-6,0
ONEWEB-0267,2021-060U,2026-06-12T04:49:23.438208,13.16594443,.00018262,87.9100,229.7615,97.5738,262.5600,0,U,48985,999,23893,.37976771E-4,.27E-6,0
ONEWEB-0268,2021-060V,2026-06-12T05:53:12.725952,13.16595704,.00020535,87.9100,229.7626,94.7430,265.3935,0,U,48986,999,23920,.26103192E-3,.113E-5,0
ONEWEB-0269,2021-060W,2026-06-12T05:25:52.030560,13.16594226,.00021907,87.9090,229.7694,94.5140,265.6241,0,U,48987,999,23897,.52794825E-4,.33E-6,0
ONEWEB-0270,2021-060X,2026-06-12T05:50:56.967360,13.16594179,.0001771,87.9099,229.7647,106.6077,253.5249,0,U,48988,999,23901,.16903999E-3,.77E-6,0
ONEWEB-0271,2021-060Y,2026-06-12T05:32:42.555840,13.16593963,.00017809,87.9098,229.7573,100.0418,260.0914,0,U,48989,999,23901,-.11153958E-4,.9E-7,0
ONEWEB-0272,2021-060Z,2026-06-12T06:04:36.385824,13.16592535,.00018742,87.9100,229.7647,90.0037,270.1309,0,U,48990,999,23896,.15497768E-3,.72E-6,0
ONEWEB-0273,2021-060AA,2026-06-12T04:47:06.609984,13.16594655,.00019245,87.9102,229.7742,100.6867,259.4480,0,U,48991,999,23893,-.38142715E-4,-.2E-7,0
ONEWEB-0274,2021-060AB,2026-06-12T05:23:34.584576,13.16593884,.00020043,87.9088,229.7724,89.2947,270.8413,0,U,48992,999,23897,.3311712E-5,.14E-6,0
