ONEWEB-0236             
1 48797U 21045AG  26163.76451402 -.00000135  00000+0 -39152-3 0  9997
2 48797  87.8999 260.0875 0002103 102.4160 257.7206 13.15547663243677
ONEWEB-0248             
1 48798U 21045AH  26163.77717977 -.00000011  00000+0 -63844-4 0  9990
2 48798  87.9009 260.0681 0001670 113.7012 246.4293 13.15547377243836
ONEWEB-0225             
1 48799U 21045AJ  26163.79937756  .00000099  00000+0  22771-3 0  9999
2 48799  87.9007 260.0719 0001395 106.3408 253.7875 13.15548596243840
ONEWEB-0215             
1 48800U 21045AK  26163.76924656 -.00000049  00000+0 -16438-3 0  9994
2 48800  87.9010 260.0601 0001368 113.9266 246.2007 13.15546731243712
ONEWEB-0216             
1 48801U 21045AL  26163.77877875  .00000030  00000+0  45565-4 0  9998
2 48801  87.9007 260.0733 0001966  98.3834 261.7519 13.15548562243721
ONEWEB-0239             
1 48802U 21045AM  26163.78352713  .00000109  00000+0  25489-3 0  9998
2 48802  87.8997 260.0791 0001492 124.1955 235.9317 13.15548697243761
ONEWEB-0249             
1 48967U 21060A   26163.26508642  .00000120  00000+0  27932-3 0  9992
2 48967  87.9101 229.7554 0002034 101.8001 258.3358 13.16595748238967
ONEWEB-0250             
1 48968U 21060B   26163.17572734  .00000095  00000+0  18642-3 0  9995
2 48968  87.9100 227.5457 0002694 118.2287 241.9122 13.25833862239550
ONEWEB-0252             
1 48970U 21060D   26163.21996158  .00000042  00000+0  77338-4 0  9993
2 48970  87.9098 229.7565 0001949  92.2143 267.9211 13.16593776239001
ONEWEB-0253             
1 48971U 21060E   26163.20887854 -.00000131  00000+0 -37629-3 0  9994
2 48971  87.9099 229.7643 0002061 101.7887 258.3475 13.16594323238933
ONEWEB-0254             
1 48972U 21060F   26163.21838203 -.00000056  00000+0 -18099-3 0  9996
2 48972  87.9102 229.7598 0001854 105.9923 254.1412 13.16594347238935
ONEWEB-0255             
1 48973U 21060G   26163.18038453  .00000128  00000+0  30159-3 0  9991
2 48973  87.9098 229.7741 0001881 101.3317 258.8025 13.16594673239009
ONEWEB-0256             
1 48974U 21060H   26163.73847635 -.00000059  00000+0 -18893-3 0  9999
2 48974  87.9095 229.6676 0002106  95.0717 265.0654 13.16593304239049
ONEWEB-0257             
1 48975U 21060J   26163.23896032  .00000054  00000+0  10802-3 0  9995
2 48975  87.9098 229.7538 0001893  97.4747 262.6599 13.16593768238934
ONEWEB-0258             
1 48976U 21060K   26163.24054547  .00000101  00000+0  23077-3 0  9995
2 48976  87.9098 229.7653 0002047 100.1829 259.9533 13.16594276238941
ONEWEB-0259             
1 48977U 21060L   26163.23421575  .00000047  00000+0  90176-4 0  9998
2 48977  87.9096 229.7659 0002005 103.8109 256.3245 13.16594224238978
ONEWEB-0260             
1 48978U 21060M   26163.22549905  .00000024  00000+0  28324-4 0  9997
2 48978  87.9093 229.7695 0002059  87.2548 272.8818 13.16594036238955
ONEWEB-0261             
1 48979U 21060N   26163.27140302  .00000054  00000+0  10821-3 0  9996
2 48979  87.9098 229.7600 0001697  97.9608 262.1715 13.16596123239014
ONEWEB-0262             
1 48980U 21060P   26163.17563269  .00000109  00000+0  25205-3 0  9991
2 48980  87.9097 229.7650 0002012 106.4076 253.7276 13.16594637238966
ONEWEB-0263             
1 48981U 21060Q   26163.73927539 -.00000060  00000+0 -19034-3 0  9999
2 48981  87.9100 229.6647 0001719 101.8760 258.2563 13.16594682239004
ONEWEB-0264             
1 48982U 21060R   26163.24450889  .00000109  00000+0  25226-3 0  9997
2 48982  87.9098 229.7661 0001877  93.7240 266.4106 13.16594954238943
ONEWEB-0266             
1 48984U 21060T   26163.18988141  .00000057  00000+0  11557-3 0  9993
2 48984  87.9102 229.7673 0002120  99.4345 260.7026 13.16594122238928
ONEWEB-0267             
1 48985U 21060U   26163.20096572  .00000027  00000+0  37977-4 0  9997
2 48985  87.9100 229.7615 0001826  97.5738 262.5600 13.16594443238935
ONEWEB-0268             
1 48986U 21060V   26163.24528618  .00000113  00000+0  26103-3 0  9997
2 48986  87.9100 229.7626 0002053  94.7430 265.3935 13.16595704239203
ONEWEB-0269             
1 48987U 21060W   26163.22629665  .00000033  00000+0  52795-4 0  9998
2 48987  87.9090 229.7694 0002190  94.5140 265.6241 13.16594226238979
ONEWEB-0270             
1 48988U 21060X   26163.24371490  .00000077  00000+0  16904-3 0  9990
2 48988  87.9099 229.7647 0001771 106.6077 253.5249 13.16594179239012
ONEWEB-0271             
1 48989U 21060Y   26163.23104810  .00000009  00000+0 -11154-4 0  9999
2 48989  87.9098 229.7573 0001780 100.0418 260.0914 13.16593963239019
ONEWEB-0272             
1 48990U 21060Z   26163.25319891  .00000072  00000+0  15498-3 0  9993
2 48990  87.9100 229.7647 0001874  90.0037 270.1309 13.16592535238963
ONEWEB-0273             
1 48991U 21060AA  26163.19938206 -.00000002  00000+0 -38143-4 0  9992
2 48991  87.9102 229.7742 0001924 100.6867 259.4480 13.16594655238939
ONEWEB-0274             
1 48992U 21060AB  26163.22470584  .00000014  00000+0  33117-5 0  9995
2 48992  87.9088 229.7724 0002004  89.2947 270.8413 13.16593884238974
